[{"OBJECT_NAME":"LUCAS (JDRS-1)","OBJECT_ID":"2020-089A","EPOCH":"2026-03-03T02:31:33.888576","MEAN_MOTION":1.00273534,"ECCENTRICITY":0.0002825,"INCLINATION":0.0642,"RA_OF_ASC_NODE":275.412,"ARG_OF_PERICENTER":61.6771,"MEAN_ANOMALY":312.4242,"EPHEMERIS_TYPE":0,"CLASSIFICATION_TYPE":"U","NORAD_CAT_ID":47202,"ELEMENT_SET_NO":999,"REV_AT_EPOCH":1935,"BSTAR":0,"MEAN_MOTION_DOT":-2.51e-6,"MEAN_MOTION_DDOT":0},{"OBJECT_NAME":"SXM-7","OBJECT_ID":"2020-096A","EPOCH":"2026-03-02T08:50:38.666112","MEAN_MOTION":1.00275144,"ECCENTRICITY":0.00040249,"INCLINATION":0.0187,"RA_OF_ASC_NODE":122.031,"ARG_OF_PERICENTER":7.7857,"MEAN_ANOMALY":77.7989,"EPHEMERIS_TYPE":0,"CLASSIFICATION_TYPE":"U","NORAD_CAT_ID":47240,"ELEMENT_SET_NO":999,"REV_AT_EPOCH":637,"BSTAR":0,"MEAN_MOTION_DOT":-2.23e-6,"MEAN_MOTION_DDOT":0},{"OBJECT_NAME":"CMS-01","OBJECT_ID":"2020-099A","EPOCH":"2026-03-02T15:48:26.553024","MEAN_MOTION":1.00272363,"ECCENTRICITY":0.0006539,"INCLINATION":0.0149,"RA_OF_ASC_NODE":136.5446,"ARG_OF_PERICENTER":152.2006,"MEAN_ANOMALY":191.7769,"EPHEMERIS_TYPE":0,"CLASSIFICATION_TYPE":"U","NORAD_CAT_ID":47256,"ELEMENT_SET_NO":999,"REV_AT_EPOCH":1913,"BSTAR":0,"MEAN_MOTION_DOT":-1.81e-6,"MEAN_MOTION_DDOT":0},{"OBJECT_NAME":"TURKSAT 5A","OBJECT_ID":"2021-001A","EPOCH":"2026-03-03T02:14:35.515104","MEAN_MOTION":1.00270586,"ECCENTRICITY":1.21e-5,"INCLINATION":0.0212,"RA_OF_ASC_NODE":100.7731,"ARG_OF_PERICENTER":200.8426,"MEAN_ANOMALY":283.8022,"EPHEMERIS_TYPE":0,"CLASSIFICATION_TYPE":"U","NORAD_CAT_ID":47306,"ELEMENT_SET_NO":999,"REV_AT_EPOCH":1890,"BSTAR":0,"MEAN_MOTION_DOT":1.38e-6,"MEAN_MOTION_DDOT":0},{"OBJECT_NAME":"TIANTONG-1 3","OBJECT_ID":"2021-003A","EPOCH":"2026-03-03T03:35:38.592672","MEAN_MOTION":1.00270235,"ECCENTRICITY":0.0006437,"INCLINATION":1.8545,"RA_OF_ASC_NODE":333.1891,"ARG_OF_PERICENTER":343.6351,"MEAN_ANOMALY":339.5017,"EPHEMERIS_TYPE":0,"CLASSIFICATION_TYPE":"U","NORAD_CAT_ID":47321,"ELEMENT_SET_NO":999,"REV_AT_EPOCH":1889,"BSTAR":0,"MEAN_MOTION_DOT":-1.69e-6,"MEAN_MOTION_DDOT":0},{"OBJECT_NAME":"TJS-6","OBJECT_ID":"2021-010A","EPOCH":"2026-03-03T04:39:21.639744","MEAN_MOTION":1.00270201,"ECCENTRICITY":0.0003229,"INCLINATION":0.3263,"RA_OF_ASC_NODE":90.8674,"ARG_OF_PERICENTER":282.5284,"MEAN_ANOMALY":35.8827,"EPHEMERIS_TYPE":0,"CLASSIFICATION_TYPE":"U","NORAD_CAT_ID":47613,"ELEMENT_SET_NO":999,"REV_AT_EPOCH":1874,"BSTAR":0,"MEAN_MOTION_DOT":2.7e-7,"MEAN_MOTION_DDOT":0},{"OBJECT_NAME":"SBIRS GEO-5 (USA 315)","OBJECT_ID":"2021-042A","EPOCH":"2026-03-03T02:32:33.794016","MEAN_MOTION":1.00271475,"ECCENTRICITY":0.0001544,"INCLINATION":5.2386,"RA_OF_ASC_NODE":328.3295,"ARG_OF_PERICENTER":356.9012,"MEAN_ANOMALY":327.5585,"EPHEMERIS_TYPE":0,"CLASSIFICATION_TYPE":"U","NORAD_CAT_ID":48618,"ELEMENT_SET_NO":999,"REV_AT_EPOCH":1770,"BSTAR":0,"MEAN_MOTION_DOT":-2.83e-6,"MEAN_MOTION_DDOT":0},{"OBJECT_NAME":"FENGYUN 4B","OBJECT_ID":"2021-047A","EPOCH":"2026-03-03T02:35:33.506880","MEAN_MOTION":1.00265595,"ECCENTRICITY":0.0008832,"INCLINATION":0.1889,"RA_OF_ASC_NODE":76.8981,"ARG_OF_PERICENTER":296.5824,"MEAN_ANOMALY":290.8175,"EPHEMERIS_TYPE":0,"CLASSIFICATION_TYPE":"U","NORAD_CAT_ID":48808,"ELEMENT_SET_NO":999,"REV_AT_EPOCH":1750,"BSTAR":0,"MEAN_MOTION_DOT":-3.44e-6,"MEAN_MOTION_DDOT":0},{"OBJECT_NAME":"SXM-8","OBJECT_ID":"2021-049A","EPOCH":"2026-03-02T06:31:38.410176","MEAN_MOTION":1.00274439,"ECCENTRICITY":0.0004221,"INCLINATION":0.0258,"RA_OF_ASC_NODE":60.0583,"ARG_OF_PERICENTER":343.6903,"MEAN_ANOMALY":129.0399,"EPHEMERIS_TYPE":0,"CLASSIFICATION_TYPE":"U","NORAD_CAT_ID":48838,"ELEMENT_SET_NO":999,"REV_AT_EPOCH":1752,"BSTAR":0,"MEAN_MOTION_DOT":-2.23e-6,"MEAN_MOTION_DDOT":0},{"OBJECT_NAME":"TIANLIAN 1-05","OBJECT_ID":"2021-063A","EPOCH":"2026-03-03T03:53:11.065632","MEAN_MOTION":1.0027111,"ECCENTRICITY":0.000467,"INCLINATION":1.3203,"RA_OF_ASC_NODE":81.5896,"ARG_OF_PERICENTER":227.1588,"MEAN_ANOMALY":287.2217,"EPHEMERIS_TYPE":0,"CLASSIFICATION_TYPE":"U","NORAD_CAT_ID":49011,"ELEMENT_SET_NO":999,"REV_AT_EPOCH":1701,"BSTAR":0,"MEAN_MOTION_DOT":9.2e-7,"MEAN_MOTION_DDOT":0},{"OBJECT_NAME":"STAR ONE D2","OBJECT_ID":"2021-069A","EPOCH":"2026-03-03T03:17:38.596128","MEAN_MOTION":1.00271346,"ECCENTRICITY":9.57e-5,"INCLINATION":0.0166,"RA_OF_ASC_NODE":133.9087,"ARG_OF_PERICENTER":195.3894,"MEAN_ANOMALY":171.0177,"EPHEMERIS_TYPE":0,"CLASSIFICATION_TYPE":"U","NORAD_CAT_ID":49055,"ELEMENT_SET_NO":999,"REV_AT_EPOCH":1687,"BSTAR":0,"MEAN_MOTION_DOT":-2.81e-6,"MEAN_MOTION_DDOT":0},{"OBJECT_NAME":"EUTELSAT QUANTUM","OBJECT_ID":"2021-069B","EPOCH":"2026-03-03T02:31:38.663040","MEAN_MOTION":1.00271903,"ECCENTRICITY":0.0002954,"INCLINATION":0.044,"RA_OF_ASC_NODE":304.7611,"ARG_OF_PERICENTER":31.4902,"MEAN_ANOMALY":270.2169,"EPHEMERIS_TYPE":0,"CLASSIFICATION_TYPE":"U","NORAD_CAT_ID":49056,"ELEMENT_SET_NO":999,"REV_AT_EPOCH":1686,"BSTAR":0,"MEAN_MOTION_DOT":1.1e-6,"MEAN_MOTION_DDOT":0},{"OBJECT_NAME":"ZHONGXING-2E","OBJECT_ID":"2021-071A","EPOCH":"2026-03-02T02:36:03.879936","MEAN_MOTION":1.00267704,"ECCENTRICITY":1.989e-5,"INCLINATION":0.0222,"RA_OF_ASC_NODE":118.0356,"ARG_OF_PERICENTER":346.5104,"MEAN_ANOMALY":192.363,"EPHEMERIS_TYPE":0,"CLASSIFICATION_TYPE":"U","NORAD_CAT_ID":49062,"ELEMENT_SET_NO":999,"REV_AT_EPOCH":1696,"BSTAR":0,"MEAN_MOTION_DOT":-3.08e-6,"MEAN_MOTION_DDOT":0},{"OBJECT_NAME":"TJS-7","OBJECT_ID":"2021-077A","EPOCH":"2026-03-03T03:19:59.246688","MEAN_MOTION":1.00269774,"ECCENTRICITY":0.0001731,"INCLINATION":0.2343,"RA_OF_ASC_NODE":88.4059,"ARG_OF_PERICENTER":260.2952,"MEAN_ANOMALY":122.6523,"EPHEMERIS_TYPE":0,"CLASSIFICATION_TYPE":"U","NORAD_CAT_ID":49115,"ELEMENT_SET_NO":999,"REV_AT_EPOCH":849,"BSTAR":0,"MEAN_MOTION_DOT":-1.39e-6,"MEAN_MOTION_DDOT":0},{"OBJECT_NAME":"CHINASAT 9B","OBJECT_ID":"2021-080A","EPOCH":"2026-03-03T02:34:41.089728","MEAN_MOTION":1.0027225,"ECCENTRICITY":0.000215,"INCLINATION":0.0348,"RA_OF_ASC_NODE":262.5119,"ARG_OF_PERICENTER":56.1495,"MEAN_ANOMALY":342.2949,"EPHEMERIS_TYPE":0,"CLASSIFICATION_TYPE":"U","NORAD_CAT_ID":49125,"ELEMENT_SET_NO":999,"REV_AT_EPOCH":1658,"BSTAR":0,"MEAN_MOTION_DOT":-3.28e-6,"MEAN_MOTION_DDOT":0},{"OBJECT_NAME":"SHIJIAN-21 (SJ-21)","OBJECT_ID":"2021-094A","EPOCH":"2026-03-03T05:04:38.053920","MEAN_MOTION":1.0026852,"ECCENTRICITY":0.0048428,"INCLINATION":4.8623,"RA_OF_ASC_NODE":61.7759,"ARG_OF_PERICENTER":171.6029,"MEAN_ANOMALY":131.713,"EPHEMERIS_TYPE":0,"CLASSIFICATION_TYPE":"U","NORAD_CAT_ID":49330,"ELEMENT_SET_NO":999,"REV_AT_EPOCH":429,"BSTAR":0,"MEAN_MOTION_DOT":-3.61e-6,"MEAN_MOTION_DDOT":0},{"OBJECT_NAME":"SES-17","OBJECT_ID":"2021-095A","EPOCH":"2026-03-03T03:17:38.596128","MEAN_MOTION":1.0026986,"ECCENTRICITY":0.0001037,"INCLINATION":0.0247,"RA_OF_ASC_NODE":65.5808,"ARG_OF_PERICENTER":275.1453,"MEAN_ANOMALY":162.4693,"EPHEMERIS_TYPE":0,"CLASSIFICATION_TYPE":"U","NORAD_CAT_ID":49332,"ELEMENT_SET_NO":999,"REV_AT_EPOCH":1679,"BSTAR":0,"MEAN_MOTION_DOT":-2.88e-6,"MEAN_MOTION_DDOT":0}]
